{"type":"FeatureCollection","features":[{"type":"Feature","id":"cesac-1","properties":{"id":"cesac-1","name":"Barracas 1 (CeSAC N° 1)","address":"Velez Sarsfield Av. 1271, Barrio 21-24","barrio_id":"barrio:barracas","comuna_id":"comuna:4","category":"CeSAC","source_id":"ba-cesac","position_method":"official_wgs84"},"geometry":{"type":"Point","coordinates":[-58.3893808,-34.6492745]}},{"type":"Feature","id":"cesac-10","properties":{"id":"cesac-10","name":"Parque Patricios 1 (CeSAC N° 10)","address":"Alcorta, Amancio Av. 1402","barrio_id":"barrio:barracas","comuna_id":"comuna:4","category":"CeSAC","source_id":"ba-cesac","position_method":"official_wgs84"},"geometry":{"type":"Point","coordinates":[-58.3834986,-34.6334194]}},{"type":"Feature","id":"cesac-11","properties":{"id":"cesac-11","name":"Balvanera (CeSAC N° 11)","address":"Aguero 940","barrio_id":"barrio:balvanera","comuna_id":"comuna:3","category":"CeSAC","source_id":"ba-cesac","position_method":"official_wgs84"},"geometry":{"type":"Point","coordinates":[-58.4106906,-34.5988472]}},{"type":"Feature","id":"cesac-12","properties":{"id":"cesac-12","name":"Villa Urquiza (CeSAC N° 12)","address":"Olazabal Av. 3960","barrio_id":"barrio:villa-urquiza","comuna_id":"comuna:12","category":"CeSAC","source_id":"ba-cesac","position_method":"official_wgs84"},"geometry":{"type":"Point","coordinates":[-58.4741816,-34.5698994]}},{"type":"Feature","id":"cesac-13","properties":{"id":"cesac-13","name":"Parque Avellaneda (CeSAC N° 13)","address":"Directorio Av. 4210","barrio_id":"barrio:parque-avellaneda","comuna_id":"comuna:9","category":"CeSAC","source_id":"ba-cesac","position_method":"official_wgs84"},"geometry":{"type":"Point","coordinates":[-58.482025,-34.643472]}},{"type":"Feature","id":"cesac-14","properties":{"id":"cesac-14","name":"Villa Lugano 3 (CeSAC N° 14)","address":"Casco, Horacio, Dr. 4446","barrio_id":"barrio:parque-avellaneda","comuna_id":"comuna:9","category":"CeSAC","source_id":"ba-cesac","position_method":"official_wgs84"},"geometry":{"type":"Point","coordinates":[-58.474251,-34.6603231]}},{"type":"Feature","id":"cesac-15","properties":{"id":"cesac-15","name":"San Telmo (CeSAC N° 15)","address":"Humberto 1° 470, Rodrigo Bueno","barrio_id":"barrio:san-telmo","comuna_id":"comuna:1","category":"CeSAC","source_id":"ba-cesac","position_method":"official_wgs84"},"geometry":{"type":"Point","coordinates":[-58.3724633,-34.6207807]}},{"type":"Feature","id":"cesac-16","properties":{"id":"cesac-16","name":"Barracas 3 (CeSAC N° 16)","address":"Cruz, Osvaldo Av. 2055","barrio_id":"barrio:barracas","comuna_id":"comuna:4","category":"CeSAC","source_id":"ba-cesac","position_method":"official_wgs84"},"geometry":{"type":"Point","coordinates":[-58.3747054,-34.6518695]}},{"type":"Feature","id":"cesac-17","properties":{"id":"cesac-17","name":"Palermo 1 (CeSAC N° 17)","address":"El Salvador 4087","barrio_id":"barrio:palermo","comuna_id":"comuna:14","category":"CeSAC","source_id":"ba-cesac","position_method":"official_wgs84"},"geometry":{"type":"Point","coordinates":[-58.420525,-34.5927286]}},{"type":"Feature","id":"cesac-18","properties":{"id":"cesac-18","name":"Villa Lugano 4 (CeSAC N° 18)","address":"Corvalan y Fernandez De La Cruz, F., Gral. Av., Barrio 20","barrio_id":"barrio:villa-lugano","comuna_id":"comuna:8","category":"CeSAC","source_id":"ba-cesac","position_method":"official_wgs84"},"geometry":{"type":"Point","coordinates":[-58.462947,-34.674744]}},{"type":"Feature","id":"cesac-19","properties":{"id":"cesac-19","name":"Flores 1 (CeSAC N° 19)","address":"Curapaligue 1905","barrio_id":"barrio:flores","comuna_id":"comuna:7","category":"CeSAC","source_id":"ba-cesac","position_method":"official_wgs84"},"geometry":{"type":"Point","coordinates":[-58.442221,-34.643207]}},{"type":"Feature","id":"cesac-2","properties":{"id":"cesac-2","name":"Villa Pueyrredón (CeSAC N° 2)","address":"Terrada 5850, Barrio Albarellos","barrio_id":"barrio:villa-pueyrredon","comuna_id":"comuna:12","category":"CeSAC","source_id":"ba-cesac","position_method":"official_wgs84"},"geometry":{"type":"Point","coordinates":[-58.5095036,-34.576551]}},{"type":"Feature","id":"cesac-20","properties":{"id":"cesac-20","name":"Flores 2 (CeSAC N° 20)","address":"Charrua y Janer, Ana Maria, Barrio Padre Ricciardelli (Villa 1-11-14)","barrio_id":"barrio:flores","comuna_id":"comuna:7","category":"CeSAC","source_id":"ba-cesac","position_method":"official_wgs84"},"geometry":{"type":"Point","coordinates":[-58.4380621,-34.6495356]}},{"type":"Feature","id":"cesac-21","properties":{"id":"cesac-21","name":"Retiro 1 (CeSAC N° 21)","address":"Gendarmeria Nacional Av. y Ulla Ulla, Barrio Padre Mugica","barrio_id":"barrio:retiro","comuna_id":"comuna:1","category":"CeSAC","source_id":"ba-cesac","position_method":"official_wgs84"},"geometry":{"type":"Point","coordinates":[-58.375835,-34.583048]}},{"type":"Feature","id":"cesac-22","properties":{"id":"cesac-22","name":"La Paternal 2 (CeSAC N° 22)","address":"Fragata Pres. Sarmiento 2152","barrio_id":"barrio:la-paternal","comuna_id":"comuna:15","category":"CeSAC","source_id":"ba-cesac","position_method":"official_wgs84"},"geometry":{"type":"Point","coordinates":[-58.4590664,-34.6008845]}},{"type":"Feature","id":"cesac-23","properties":{"id":"cesac-23","name":"Villa Luro (CeSAC N° 23)","address":"Bacacay 5640","barrio_id":"barrio:villa-luro","comuna_id":"comuna:10","category":"CeSAC","source_id":"ba-cesac","position_method":"official_wgs84"},"geometry":{"type":"Point","coordinates":[-58.5059222,-34.6357657]}},{"type":"Feature","id":"cesac-24","properties":{"id":"cesac-24","name":"Villa Soldati 2 (CeSAC N° 24)","address":"Pasaje L y Martinez Castro","barrio_id":"barrio:villa-soldati","comuna_id":"comuna:8","category":"CeSAC","source_id":"ba-cesac","position_method":"official_wgs84"},"geometry":{"type":"Point","coordinates":[-58.455395,-34.6578354]}},{"type":"Feature","id":"cesac-25","properties":{"id":"cesac-25","name":"Retiro 2 (CeSAC N° 25)","address":"Palo Santo y Vicuña, Barrio Padre Mugica","barrio_id":"barrio:retiro","comuna_id":"comuna:1","category":"CeSAC","source_id":"ba-cesac","position_method":"official_wgs84"},"geometry":{"type":"Point","coordinates":[-58.38435,-34.581511]}},{"type":"Feature","id":"cesac-26","properties":{"id":"cesac-26","name":"Palermo 2 (CeSAC N° 26)","address":"Gurruchaga 1939","barrio_id":"barrio:palermo","comuna_id":"comuna:14","category":"CeSAC","source_id":"ba-cesac","position_method":"official_wgs84"},"geometry":{"type":"Point","coordinates":[-58.4256462,-34.5872375]}},{"type":"Feature","id":"cesac-27","properties":{"id":"cesac-27","name":"Saavedra (CeSAC N° 27)","address":"Arias 3781","barrio_id":"barrio:saavedra","comuna_id":"comuna:12","category":"CeSAC","source_id":"ba-cesac","position_method":"official_wgs84"},"geometry":{"type":"Point","coordinates":[-58.486748,-34.547708]}},{"type":"Feature","id":"cesac-28","properties":{"id":"cesac-28","name":"Villa Lugano 10 (CeSAC N° 28)","address":"Santander 5955, Barrio 15","barrio_id":"barrio:villa-lugano","comuna_id":"comuna:8","category":"CeSAC","source_id":"ba-cesac","position_method":"official_wgs84"},"geometry":{"type":"Point","coordinates":[-58.4862528,-34.6730844]}},{"type":"Feature","id":"cesac-29","properties":{"id":"cesac-29","name":"Villa Lugano 5 (CeSAC N° 29)","address":"Los Alamos y Paz, Gral. Av., Barrio INTA (ex Villa 19)","barrio_id":"barrio:villa-lugano","comuna_id":"comuna:8","category":"CeSAC","source_id":"ba-cesac","position_method":"official_wgs84"},"geometry":{"type":"Point","coordinates":[-58.4867249,-34.6847851]}},{"type":"Feature","id":"cesac-3","properties":{"id":"cesac-3","name":"Villa Lugano 9 (CeSAC N° 3)","address":"Soldado De La Frontera Av. 5144, Barrio Gral. Savio (ex Lugano I y II)","barrio_id":"barrio:villa-lugano","comuna_id":"comuna:8","category":"CeSAC","source_id":"ba-cesac","position_method":"official_wgs84"},"geometry":{"type":"Point","coordinates":[-58.4643369,-34.6846387]}},{"type":"Feature","id":"cesac-30","properties":{"id":"cesac-30","name":"Barracas 4 (CeSAC N° 30)","address":"Alcorta, Amancio Av. y Iguazu, Barrio 21-24","barrio_id":"barrio:barracas","comuna_id":"comuna:4","category":"CeSAC","source_id":"ba-cesac","position_method":"official_wgs84"},"geometry":{"type":"Point","coordinates":[-58.4046186,-34.6498733]}},{"type":"Feature","id":"cesac-31","properties":{"id":"cesac-31","name":"Flores 3 (CeSAC N° 31)","address":"Vedia, Agustin De y Janer, Ana Maria","barrio_id":"barrio:flores","comuna_id":"comuna:7","category":"CeSAC","source_id":"ba-cesac","position_method":"official_wgs84"},"geometry":{"type":"Point","coordinates":[-58.434519,-34.646675]}},{"type":"Feature","id":"cesac-32","properties":{"id":"cesac-32","name":"Nueva Pompeya (CeSAC N° 32)","address":"Charrua 2900, Barrio Charrúa (ex Villa 12)","barrio_id":"barrio:nueva-pompeya","comuna_id":"comuna:4","category":"CeSAC","source_id":"ba-cesac","position_method":"official_wgs84"},"geometry":{"type":"Point","coordinates":[-58.4311166,-34.6541318]}},{"type":"Feature","id":"cesac-33","properties":{"id":"cesac-33","name":"Palermo 3 (CeSAC N° 33)","address":"Cordoba Av. 5741","barrio_id":"barrio:palermo","comuna_id":"comuna:14","category":"CeSAC","source_id":"ba-cesac","position_method":"official_wgs84"},"geometry":{"type":"Point","coordinates":[-58.4416185,-34.5863725]}},{"type":"Feature","id":"cesac-34","properties":{"id":"cesac-34","name":"La Paternal 1 (CeSAC N° 34)","address":"Artigas, Jose Gervasio, Gral. 2262","barrio_id":"barrio:villa-del-parque","comuna_id":"comuna:11","category":"CeSAC","source_id":"ba-cesac","position_method":"official_wgs84"},"geometry":{"type":"Point","coordinates":[-58.4782434,-34.6066086]}},{"type":"Feature","id":"cesac-35","properties":{"id":"cesac-35","name":"Barracas 6 (CeSAC N° 35)","address":"Zavaleta y Cruz, Osvaldo, Barrio 21-24","barrio_id":"barrio:barracas","comuna_id":"comuna:4","category":"CeSAC","source_id":"ba-cesac","position_method":"official_wgs84"},"geometry":{"type":"Point","coordinates":[-58.399715,-34.65628]}},{"type":"Feature","id":"cesac-36","properties":{"id":"cesac-36","name":"Floresta (CeSAC N° 36)","address":"Mercedes 1371","barrio_id":"barrio:floresta","comuna_id":"comuna:10","category":"CeSAC","source_id":"ba-cesac","position_method":"official_wgs84"},"geometry":{"type":"Point","coordinates":[-58.4917846,-34.6218233]}},{"type":"Feature","id":"cesac-37","properties":{"id":"cesac-37","name":"Mataderos 2 (CeSAC N° 37)","address":"De Los Corrales Av. 6999","barrio_id":"barrio:mataderos","comuna_id":"comuna:9","category":"CeSAC","source_id":"ba-cesac","position_method":"official_wgs84"},"geometry":{"type":"Point","coordinates":[-58.5041754,-34.6656769]}},{"type":"Feature","id":"cesac-38","properties":{"id":"cesac-38","name":"Almagro (CeSAC N° 38)","address":"Medrano Av. 350","barrio_id":"barrio:almagro","comuna_id":"comuna:5","category":"CeSAC","source_id":"ba-cesac","position_method":"official_wgs84"},"geometry":{"type":"Point","coordinates":[-58.4215723,-34.6065875]}},{"type":"Feature","id":"cesac-39","properties":{"id":"cesac-39","name":"Parque Patricios 2 (CeSAC N° 39)","address":"24 De Noviembre 1679","barrio_id":"barrio:parque-patricios","comuna_id":"comuna:4","category":"CeSAC","source_id":"ba-cesac","position_method":"official_wgs84"},"geometry":{"type":"Point","coordinates":[-58.4099178,-34.6310036]}},{"type":"Feature","id":"cesac-4","properties":{"id":"cesac-4","name":"Mataderos 1 (CeSAC N° 4)","address":"Alberdi, Juan Bautista Av. y Pilar","barrio_id":"barrio:mataderos","comuna_id":"comuna:9","category":"CeSAC","source_id":"ba-cesac","position_method":"official_wgs84"},"geometry":{"type":"Point","coordinates":[-58.506665,-34.655853]}},{"type":"Feature","id":"cesac-40","properties":{"id":"cesac-40","name":"Flores 4 (CeSAC N° 40)","address":"Bonorino, Esteban, Cnel. Av. 1729","barrio_id":"barrio:flores","comuna_id":"comuna:7","category":"CeSAC","source_id":"ba-cesac","position_method":"official_wgs84"},"geometry":{"type":"Point","coordinates":[-58.4458606,-34.6449069]}},{"type":"Feature","id":"cesac-41","properties":{"id":"cesac-41","name":"La Boca 2 (CeSAC N° 41)","address":"Brin, Ministro 843","barrio_id":"barrio:la-boca","comuna_id":"comuna:4","category":"CeSAC","source_id":"ba-cesac","position_method":"official_wgs84"},"geometry":{"type":"Point","coordinates":[-58.3579293,-34.6313251]}},{"type":"Feature","id":"cesac-42","properties":{"id":"cesac-42","name":"Villa Lugano 6 (CeSAC N° 43)","address":"Fonrouge 4377, CMV ex-Villa 20","barrio_id":"barrio:villa-lugano","comuna_id":"comuna:8","category":"CeSAC","source_id":"ba-cesac","position_method":"official_wgs84"},"geometry":{"type":"Point","coordinates":[-58.4666291,-34.6778068]}},{"type":"Feature","id":"cesac-43","properties":{"id":"cesac-43","name":"Villa Lugano 7 (CeSAC N° 44)","address":"Saraza 4202","barrio_id":"barrio:villa-lugano","comuna_id":"comuna:8","category":"CeSAC","source_id":"ba-cesac","position_method":"official_wgs84"},"geometry":{"type":"Point","coordinates":[-58.4673633,-34.6607286]}},{"type":"Feature","id":"cesac-44","properties":{"id":"cesac-44","name":"San Cristóbal (CeSAC N° 45)","address":"Cochabamba 2622","barrio_id":"barrio:san-cristobal","comuna_id":"comuna:3","category":"CeSAC","source_id":"ba-cesac","position_method":"official_wgs84"},"geometry":{"type":"Point","coordinates":[-58.4022526,-34.6253901]}},{"type":"Feature","id":"cesac-45","properties":{"id":"cesac-45","name":"La Boca 3 (CeSAC N° 46)","address":"Regimiento De Patricios Av. 1941","barrio_id":"barrio:barracas","comuna_id":"comuna:4","category":"CeSAC","source_id":"ba-cesac","position_method":"official_wgs84"},"geometry":{"type":"Point","coordinates":[-58.3679885,-34.6488429]}},{"type":"Feature","id":"cesac-46","properties":{"id":"cesac-46","name":"Retiro 3 (CeSAC N° 47)","address":"Alpaca y Caña, Alpaca 620 - Barrio Padre Mugica","barrio_id":"barrio:retiro","comuna_id":"comuna:1","category":"CeSAC","source_id":"ba-cesac","position_method":"official_wgs84"},"geometry":{"type":"Point","coordinates":[-58.379309,-34.584256]}},{"type":"Feature","id":"cesac-47","properties":{"id":"cesac-47","name":"Flores 5 (CeSAC N° 48)","address":"Fernandez De La Cruz, F., Gral. Av. 1753","barrio_id":"barrio:flores","comuna_id":"comuna:7","category":"CeSAC","source_id":"ba-cesac","position_method":"official_wgs84"},"geometry":{"type":"Point","coordinates":[-58.4311254,-34.6500402]}},{"type":"Feature","id":"cesac-5","properties":{"id":"cesac-5","name":"Villa Lugano 1 (CeSAC N° 5)","address":"Piedra Buena Av. 3140","barrio_id":"barrio:villa-lugano","comuna_id":"comuna:8","category":"CeSAC","source_id":"ba-cesac","position_method":"official_wgs84"},"geometry":{"type":"Point","coordinates":[-58.4951266,-34.6704631]}},{"type":"Feature","id":"cesac-6","properties":{"id":"cesac-6","name":"Villa Soldati 1 (CeSAC N° 6)","address":"Acosta, Mariano 3673","barrio_id":"barrio:villa-soldati","comuna_id":"comuna:8","category":"CeSAC","source_id":"ba-cesac","position_method":"official_wgs84"},"geometry":{"type":"Point","coordinates":[-58.441444,-34.666771]}},{"type":"Feature","id":"cesac-7","properties":{"id":"cesac-7","name":"Villa Lugano 2 (CeSAC N° 7)","address":"2 De Abril De 1982 y Montiel, Barrio Piedrabuena","barrio_id":"barrio:villa-lugano","comuna_id":"comuna:8","category":"CeSAC","source_id":"ba-cesac","position_method":"official_wgs84"},"geometry":{"type":"Point","coordinates":[-58.4919,-34.678824]}},{"type":"Feature","id":"cesac-8","properties":{"id":"cesac-8","name":"Barracas 2 (CeSAC N° 8)","address":"Cruz, Osvaldo y Luna, Barrio 21-24","barrio_id":"barrio:barracas","comuna_id":"comuna:4","category":"CeSAC","source_id":"ba-cesac","position_method":"official_wgs84"},"geometry":{"type":"Point","coordinates":[-58.3973653,-34.6560419]}},{"type":"Feature","id":"cesac-9","properties":{"id":"cesac-9","name":"La Boca 1 (CeSAC N° 9)","address":"Irala 1254","barrio_id":"barrio:la-boca","comuna_id":"comuna:4","category":"CeSAC","source_id":"ba-cesac","position_method":"official_wgs84"},"geometry":{"type":"Point","coordinates":[-58.3659122,-34.6401053]}},{"type":"Feature","id":"cesac-91","properties":{"id":"cesac-91","name":"Centro de Salud Nivel 1 (CeSAC Nº 49)","address":"Orma y Magaldi, Agustin","barrio_id":"barrio:barracas","comuna_id":"comuna:4","category":"CeSAC","source_id":"ba-cesac","position_method":"official_wgs84"},"geometry":{"type":"Point","coordinates":[-58.393068,-34.661863]}},{"type":"Feature","id":"cesac-92","properties":{"id":"cesac-92","name":"Centro de Salud Nivel 1 Devoto (CeSAC Nº 50)","address":"Lastra Av. 4180","barrio_id":"barrio:villa-devoto","comuna_id":"comuna:11","category":"CeSAC","source_id":"ba-cesac","position_method":"official_wgs84"},"geometry":{"type":"Point","coordinates":[-58.5239493,-34.6058439]}},{"type":"Feature","id":"cesac-93","properties":{"id":"cesac-93","name":"Centro de Salud Nivel 1 Boedo (CeSAC Nº 42)","address":"La Plata Av. 2241","barrio_id":"barrio:nueva-pompeya","comuna_id":"comuna:4","category":"CeSAC","source_id":"ba-cesac","position_method":"official_wgs84"},"geometry":{"type":"Point","coordinates":[-58.4235111,-34.6407109]}},{"type":"Feature","id":"hospital-hospital-de-pediatria-dr-j-garrahan","properties":{"id":"hospital-hospital-de-pediatria-dr-j-garrahan","name":"Hospital de Pediatria Dr. J. Garrahan","address":"Combate De Los Pozos 1881","barrio_id":"barrio:parque-patricios","comuna_id":"comuna:4","category":"Hospital","source_id":"ba-hospitales","position_method":"official_reprojected_epsg9498"},"geometry":{"type":"Point","coordinates":[-58.3918835,-34.6299497]}},{"type":"Feature","id":"hospital-hospital-especializado-de-emerg-psiquiatricas-torcuato-de-alvear","properties":{"id":"hospital-hospital-especializado-de-emerg-psiquiatricas-torcuato-de-alvear","name":"Hospital Especializado de Emerg Psiquiatricas Torcuato de Alvear","address":"Warnes Av. 2630","barrio_id":"barrio:la-paternal","comuna_id":"comuna:15","category":"Hospital","source_id":"ba-hospitales","position_method":"official_reprojected_epsg9498"},"geometry":{"type":"Point","coordinates":[-58.4752599,-34.5972153]}},{"type":"Feature","id":"hospital-hospital-especializado-de-gastroenterologia-b-udaondo","properties":{"id":"hospital-hospital-especializado-de-gastroenterologia-b-udaondo","name":"Hospital Especializado de Gastroenterologia B. Udaondo","address":"Caseros Av. 2061","barrio_id":"barrio:parque-patricios","comuna_id":"comuna:4","category":"Hospital","source_id":"ba-hospitales","position_method":"official_reprojected_epsg9498"},"geometry":{"type":"Point","coordinates":[-58.3913158,-34.6341578]}},{"type":"Feature","id":"hospital-hospital-especializado-de-infecciosas-f-muniz","properties":{"id":"hospital-hospital-especializado-de-infecciosas-f-muniz","name":"Hospital Especializado de Infecciosas F. Muñiz","address":"Uspallata 2272","barrio_id":"barrio:parque-patricios","comuna_id":"comuna:4","category":"Hospital","source_id":"ba-hospitales","position_method":"official_reprojected_epsg9498"},"geometry":{"type":"Point","coordinates":[-58.3937333,-34.6375191]}},{"type":"Feature","id":"hospital-hospital-especializado-de-odontologia-infantil-don-benito-quinquela-martin","properties":{"id":"hospital-hospital-especializado-de-odontologia-infantil-don-benito-quinquela-martin","name":"Hospital Especializado de Odontologia Infantil Don Benito Quinquela Martin","address":"Don Pedro De Mendoza Av. 1795","barrio_id":"barrio:la-boca","comuna_id":"comuna:4","category":"Hospital","source_id":"ba-hospitales","position_method":"official_reprojected_epsg9498"},"geometry":{"type":"Point","coordinates":[-58.3601258,-34.6388777]}},{"type":"Feature","id":"hospital-hospital-especializado-de-odontologia-j-duenas","properties":{"id":"hospital-hospital-especializado-de-odontologia-j-duenas","name":"Hospital Especializado de Odontologia  J. Dueñas","address":"Muñiz 15","barrio_id":"barrio:almagro","comuna_id":"comuna:5","category":"Hospital","source_id":"ba-hospitales","position_method":"official_reprojected_epsg9498"},"geometry":{"type":"Point","coordinates":[-58.4276627,-34.6146397]}},{"type":"Feature","id":"hospital-hospital-especializado-de-oftalmologia-santa-lucia","properties":{"id":"hospital-hospital-especializado-de-oftalmologia-santa-lucia","name":"Hospital Especializado de Oftalmologia Santa Lucia","address":"San Juan Av. 2021","barrio_id":"barrio:san-cristobal","comuna_id":"comuna:3","category":"Hospital","source_id":"ba-hospitales","position_method":"official_reprojected_epsg9498"},"geometry":{"type":"Point","coordinates":[-58.3944615,-34.6227864]}},{"type":"Feature","id":"hospital-hospital-especializado-de-quemados-dr-arturo-umberto-illia","properties":{"id":"hospital-hospital-especializado-de-quemados-dr-arturo-umberto-illia","name":"Hospital Especializado de Quemados Dr. Arturo Umberto Illia","address":"Goyena, Pedro Av. 369","barrio_id":"barrio:caballito","comuna_id":"comuna:6","category":"Hospital","source_id":"ba-hospitales","position_method":"official_reprojected_epsg9498"},"geometry":{"type":"Point","coordinates":[-58.4323994,-34.6255078]}},{"type":"Feature","id":"hospital-hospital-especializado-de-rehabilitacion-m-rocca","properties":{"id":"hospital-hospital-especializado-de-rehabilitacion-m-rocca","name":"Hospital Especializado de Rehabilitacion M. Rocca","address":"Segurola Av. 1949","barrio_id":"barrio:monte-castro","comuna_id":"comuna:10","category":"Hospital","source_id":"ba-hospitales","position_method":"official_reprojected_epsg9498"},"geometry":{"type":"Point","coordinates":[-58.5021447,-34.6179869]}},{"type":"Feature","id":"hospital-hospital-especializado-de-rehabilitacion-respiratoria-maria-ferrer","properties":{"id":"hospital-hospital-especializado-de-rehabilitacion-respiratoria-maria-ferrer","name":"Hospital Especializado de Rehabilitacion Respiratoria Maria Ferrer","address":"Finochietto Enrique Dr. 849","barrio_id":"barrio:barracas","comuna_id":"comuna:4","category":"Hospital","source_id":"ba-hospitales","position_method":"official_reprojected_epsg9498"},"geometry":{"type":"Point","coordinates":[-58.3758484,-34.6302154]}},{"type":"Feature","id":"hospital-hospital-especializado-de-salud-mental-braulio-moyano","properties":{"id":"hospital-hospital-especializado-de-salud-mental-braulio-moyano","name":"Hospital Especializado de Salud Mental Braulio Moyano","address":"Brandsen 2570","barrio_id":"barrio:barracas","comuna_id":"comuna:4","category":"Hospital","source_id":"ba-hospitales","position_method":"official_reprojected_epsg9498"},"geometry":{"type":"Point","coordinates":[-58.3851605,-34.6394082]}},{"type":"Feature","id":"hospital-hospital-especializado-de-salud-mental-j-borda","properties":{"id":"hospital-hospital-especializado-de-salud-mental-j-borda","name":"Hospital Especializado de Salud Mental J. Borda","address":"Carrillo, Ramon, Dr. 375","barrio_id":"barrio:barracas","comuna_id":"comuna:4","category":"Hospital","source_id":"ba-hospitales","position_method":"official_reprojected_epsg9498"},"geometry":{"type":"Point","coordinates":[-58.3821331,-34.6364392]}},{"type":"Feature","id":"hospital-hospital-especializado-infanto-juvenil-c-tobar-garcia","properties":{"id":"hospital-hospital-especializado-infanto-juvenil-c-tobar-garcia","name":"Hospital Especializado Infanto Juvenil C. Tobar Garcia","address":"Carrillo, Ramon, Dr. 315","barrio_id":"barrio:barracas","comuna_id":"comuna:4","category":"Hospital","source_id":"ba-hospitales","position_method":"official_reprojected_epsg9498"},"geometry":{"type":"Point","coordinates":[-58.3823331,-34.6357064]}},{"type":"Feature","id":"hospital-hospital-especializado-materno-infantil-r-sarda","properties":{"id":"hospital-hospital-especializado-materno-infantil-r-sarda","name":"Hospital Especializado Materno Infantil R. Sarda","address":"Luca, Esteban De 2151","barrio_id":"barrio:parque-patricios","comuna_id":"comuna:4","category":"Hospital","source_id":"ba-hospitales","position_method":"official_reprojected_epsg9498"},"geometry":{"type":"Point","coordinates":[-58.4027545,-34.6348606]}},{"type":"Feature","id":"hospital-hospital-especializado-odontologico-dr-r-carrillo-ex-nacional","properties":{"id":"hospital-hospital-especializado-odontologico-dr-r-carrillo-ex-nacional","name":"Hospital Especializado Odontologico Dr. R. Carrillo (Ex Nacional)","address":"Sanchez De Bustamante 2529","barrio_id":"barrio:recoleta","comuna_id":"comuna:2","category":"Hospital","source_id":"ba-hospitales","position_method":"official_reprojected_epsg9498"},"geometry":{"type":"Point","coordinates":[-58.4026509,-34.5844656]}},{"type":"Feature","id":"hospital-hospital-especializado-oftalmologico-dr-p-lagleyze","properties":{"id":"hospital-hospital-especializado-oftalmologico-dr-p-lagleyze","name":"Hospital Especializado Oftalmologico Dr. P. Lagleyze","address":"Justo, Juan B. Av. 4151","barrio_id":"barrio:villa-gral-mitre","comuna_id":"comuna:11","category":"Hospital","source_id":"ba-hospitales","position_method":"official_reprojected_epsg9498"},"geometry":{"type":"Point","coordinates":[-58.4601872,-34.6054395]}},{"type":"Feature","id":"hospital-hospital-general-de-agudos-a-zubizarreta","properties":{"id":"hospital-hospital-general-de-agudos-a-zubizarreta","name":"Hospital General de Agudos A. Zubizarreta","address":"Nueva York 3952","barrio_id":"barrio:villa-devoto","comuna_id":"comuna:11","category":"Hospital","source_id":"ba-hospitales","position_method":"official_reprojected_epsg9498"},"geometry":{"type":"Point","coordinates":[-58.511052,-34.5999851]}},{"type":"Feature","id":"hospital-hospital-general-de-agudos-b-rivadavia","properties":{"id":"hospital-hospital-general-de-agudos-b-rivadavia","name":"Hospital General de Agudos B. Rivadavia","address":"Las Heras General Av. 2670","barrio_id":"barrio:recoleta","comuna_id":"comuna:2","category":"Hospital","source_id":"ba-hospitales","position_method":"official_reprojected_epsg9498"},"geometry":{"type":"Point","coordinates":[-58.4005178,-34.5847713]}},{"type":"Feature","id":"hospital-hospital-general-de-agudos-cecilia-grierson","properties":{"id":"hospital-hospital-general-de-agudos-cecilia-grierson","name":"Hospital General de Agudos Cecilia Grierson","address":"Fernandez De La Cruz, F., Gral. Av. 4402","barrio_id":"barrio:villa-soldati","comuna_id":"comuna:8","category":"Hospital","source_id":"ba-hospitales","position_method":"official_reprojected_epsg9498"},"geometry":{"type":"Point","coordinates":[-58.4568081,-34.6717565]}},{"type":"Feature","id":"hospital-hospital-general-de-agudos-d-velez-sarsfield","properties":{"id":"hospital-hospital-general-de-agudos-d-velez-sarsfield","name":"Hospital General de Agudos D. Velez Sarsfield","address":"Calderon De La Barca, Pedro 1550","barrio_id":"barrio:monte-castro","comuna_id":"comuna:10","category":"Hospital","source_id":"ba-hospitales","position_method":"official_reprojected_epsg9498"},"geometry":{"type":"Point","coordinates":[-58.5076146,-34.6253418]}},{"type":"Feature","id":"hospital-hospital-general-de-agudos-donacion-f-santojanni","properties":{"id":"hospital-hospital-general-de-agudos-donacion-f-santojanni","name":"Hospital General de Agudos Donacion F. Santojanni","address":"Pilar 950","barrio_id":"barrio:liniers","comuna_id":"comuna:9","category":"Hospital","source_id":"ba-hospitales","position_method":"official_reprojected_epsg9498"},"geometry":{"type":"Point","coordinates":[-58.5156282,-34.6491912]}},{"type":"Feature","id":"hospital-hospital-general-de-agudos-dr-c-argerich","properties":{"id":"hospital-hospital-general-de-agudos-dr-c-argerich","name":"Hospital General de Agudos Dr C. Argerich","address":"Pi Y Margall 750","barrio_id":"barrio:la-boca","comuna_id":"comuna:4","category":"Hospital","source_id":"ba-hospitales","position_method":"official_reprojected_epsg9498"},"geometry":{"type":"Point","coordinates":[-58.3659402,-34.6278482]}},{"type":"Feature","id":"hospital-hospital-general-de-agudos-dr-c-durand","properties":{"id":"hospital-hospital-general-de-agudos-dr-c-durand","name":"Hospital General de Agudos Dr. C. Durand","address":"Diaz Velez Av. 5044","barrio_id":"barrio:caballito","comuna_id":"comuna:6","category":"Hospital","source_id":"ba-hospitales","position_method":"official_reprojected_epsg9498"},"geometry":{"type":"Point","coordinates":[-58.4379839,-34.6089779]}},{"type":"Feature","id":"hospital-hospital-general-de-agudos-dr-e-tornu","properties":{"id":"hospital-hospital-general-de-agudos-dr-e-tornu","name":"Hospital General de Agudos Dr. E. Tornu","address":"Combatientes De Malvinas Av. 3002","barrio_id":"barrio:parque-chas","comuna_id":"comuna:15","category":"Hospital","source_id":"ba-hospitales","position_method":"official_reprojected_epsg9498"},"geometry":{"type":"Point","coordinates":[-58.4711186,-34.5873974]}},{"type":"Feature","id":"hospital-hospital-general-de-agudos-dr-i-pirovano","properties":{"id":"hospital-hospital-general-de-agudos-dr-i-pirovano","name":"Hospital General de Agudos Dr. I. Pirovano","address":"Monroe Av. 3555","barrio_id":"barrio:coghlan","comuna_id":"comuna:12","category":"Hospital","source_id":"ba-hospitales","position_method":"official_reprojected_epsg9498"},"geometry":{"type":"Point","coordinates":[-58.4710796,-34.5650581]}},{"type":"Feature","id":"hospital-hospital-general-de-agudos-dr-j-a-fernandez","properties":{"id":"hospital-hospital-general-de-agudos-dr-j-a-fernandez","name":"Hospital General de Agudos Dr. J. A. Fernandez","address":"Cerviño Av. 3356","barrio_id":"barrio:palermo","comuna_id":"comuna:14","category":"Hospital","source_id":"ba-hospitales","position_method":"official_reprojected_epsg9498"},"geometry":{"type":"Point","coordinates":[-58.406898,-34.5811472]}},{"type":"Feature","id":"hospital-hospital-general-de-agudos-dr-t-alvarez","properties":{"id":"hospital-hospital-general-de-agudos-dr-t-alvarez","name":"Hospital General de Agudos Dr. T. Alvarez","address":"Aranguren, Juan F., Dr. 2701","barrio_id":"barrio:flores","comuna_id":"comuna:7","category":"Hospital","source_id":"ba-hospitales","position_method":"official_reprojected_epsg9498"},"geometry":{"type":"Point","coordinates":[-58.4695032,-34.6241753]}},{"type":"Feature","id":"hospital-hospital-general-de-agudos-j-a-penna","properties":{"id":"hospital-hospital-general-de-agudos-j-a-penna","name":"Hospital General de Agudos J. A. Penna","address":"Chutro, Pedro, Prof., Dr. 3380","barrio_id":"barrio:parque-patricios","comuna_id":"comuna:4","category":"Hospital","source_id":"ba-hospitales","position_method":"official_reprojected_epsg9498"},"geometry":{"type":"Point","coordinates":[-58.4108637,-34.6431214]}},{"type":"Feature","id":"hospital-hospital-general-de-agudos-j-m-ramos-mejia","properties":{"id":"hospital-hospital-general-de-agudos-j-m-ramos-mejia","name":"Hospital General de Agudos J. M. Ramos Mejia","address":"Urquiza, Gral. 609","barrio_id":"barrio:balvanera","comuna_id":"comuna:3","category":"Hospital","source_id":"ba-hospitales","position_method":"official_reprojected_epsg9498"},"geometry":{"type":"Point","coordinates":[-58.4096144,-34.6176645]}},{"type":"Feature","id":"hospital-hospital-general-de-agudos-p-pinero","properties":{"id":"hospital-hospital-general-de-agudos-p-pinero","name":"Hospital General de Agudos P. Piñero","address":"Varela Av. 1301","barrio_id":"barrio:flores","comuna_id":"comuna:7","category":"Hospital","source_id":"ba-hospitales","position_method":"official_reprojected_epsg9498"},"geometry":{"type":"Point","coordinates":[-58.4541184,-34.6438984]}},{"type":"Feature","id":"hospital-hospital-general-de-ninos-p-de-elizalde","properties":{"id":"hospital-hospital-general-de-ninos-p-de-elizalde","name":"Hospital General de Niños P. de Elizalde","address":"Montes De Oca, Manuel Av. 40","barrio_id":"barrio:barracas","comuna_id":"comuna:4","category":"Hospital","source_id":"ba-hospitales","position_method":"official_reprojected_epsg9498"},"geometry":{"type":"Point","coordinates":[-58.3775558,-34.6288516]}},{"type":"Feature","id":"hospital-hospital-general-de-ninos-r-gutierrez","properties":{"id":"hospital-hospital-general-de-ninos-r-gutierrez","name":"Hospital General de Niños R. Gutierrez","address":"Gallo 1330","barrio_id":"barrio:recoleta","comuna_id":"comuna:2","category":"Hospital","source_id":"ba-hospitales","position_method":"official_reprojected_epsg9498"},"geometry":{"type":"Point","coordinates":[-58.4120738,-34.5941972]}},{"type":"Feature","id":"hospital-hospital-municipal-de-oncologia-m-curie","properties":{"id":"hospital-hospital-municipal-de-oncologia-m-curie","name":"Hospital Municipal de Oncologia M. Curie","address":"Patricias Argentinas Av. 150","barrio_id":"barrio:caballito","comuna_id":"comuna:6","category":"Hospital","source_id":"ba-hospitales","position_method":"official_reprojected_epsg9498"},"geometry":{"type":"Point","coordinates":[-58.4330747,-34.6070714]}},{"type":"Feature","id":"hospital-inst-de-zoonosis-l-pasteur","properties":{"id":"hospital-inst-de-zoonosis-l-pasteur","name":"Inst. de Zoonosis L. Pasteur","address":"Diaz Velez Av. 4821","barrio_id":"barrio:caballito","comuna_id":"comuna:6","category":"Hospital","source_id":"ba-hospitales","position_method":"official_reprojected_epsg9498"},"geometry":{"type":"Point","coordinates":[-58.434946,-34.6084771]}},{"type":"Feature","id":"hospital-instituto-de-rehabilitacion-psicofisica-i-r-e-p","properties":{"id":"hospital-instituto-de-rehabilitacion-psicofisica-i-r-e-p","name":"Instituto de Rehabilitacion Psicofisica (I.R.E.P.)","address":"Echeverria 955","barrio_id":"barrio:belgrano","comuna_id":"comuna:13","category":"Hospital","source_id":"ba-hospitales","position_method":"official_reprojected_epsg9498"},"geometry":{"type":"Point","coordinates":[-58.4409911,-34.5539026]}},{"type":"Feature","id":"hospital-talleres-protegidos-de-rehabilitacion-psiquiatrica","properties":{"id":"hospital-talleres-protegidos-de-rehabilitacion-psiquiatrica","name":"Talleres Protegidos de Rehabilitacion Psiquiatrica","address":"Suarez Av. 2215","barrio_id":"barrio:barracas","comuna_id":"comuna:4","category":"Hospital","source_id":"ba-hospitales","position_method":"official_reprojected_epsg9498"},"geometry":{"type":"Point","coordinates":[-58.3831099,-34.6422698]}}]}
